BEIDOU-2 IGSO-1 (C06)   
1 36828U 10036A   24348.93954013 -.00000037  00000+0  00000+0 0  9991
2 36828  54.2611 167.9359 0043100 205.8168 154.9480  1.00278480 52701
BEIDOU-2 G4 (C04)       
1 37210U 10057A   24349.55622925 -.00000103  00000+0  00000+0 0  9997
2 37210   2.2845  70.2308 0009873 185.9789 187.7717  1.00271367 51775
BEIDOU-2 IGSO-2 (C07)   
1 37256U 10068A   24348.75850719 -.00000221  00000+0  00000+0 0  9995
2 37256  48.5509 278.6275 0040384 215.8272 327.4269  1.00295308 51264
BEIDOU-2 IGSO-3 (C08)   
1 37384U 11013A   24348.83421983 -.00000199  00000+0  00000+0 0  9998
2 37384  61.6150  45.3838 0030870 182.5802 262.1352  1.00263231 50151
BEIDOU-2 IGSO-4 (C09)   
1 37763U 11038A   24348.97148153  .00000045  00000+0  00000+0 0  9995
2 37763  54.5666 170.5870 0130523 228.4635 130.0729  1.00269854 49125
BEIDOU-2 IGSO-5 (C10)   
1 37948U 11073A   24347.78660399 -.00000198  00000+0  00000+0 0  9998
2 37948  48.6878 278.3363 0102439 221.0255 319.7919  1.00291519 47875
BEIDOU-2 G5 (C05)       
1 38091U 12008A   24349.46407451  .00000066  00000+0  00000+0 0  9995
2 38091   2.2046  71.0335 0012188 225.7653  12.6114  1.00273567 46967
BEIDOU-2 M3 (C11)       
1 38250U 12018A   24348.27460938 -.00000086  00000+0  00000+0 0  9993
2 38250  56.2120 323.3704 0025214 268.8013  90.8984  1.86233479 85688
BEIDOU-2 M4 (C12)       
1 38251U 12018B   24348.20524192 -.00000086  00000+0  00000+0 0  9990
2 38251  56.1171 322.6308 0016135 272.0908  87.7129  1.86231920 85683
BEIDOU-2 M6 (C14)       
1 38775U 12050B   24348.45193085 -.00000060  00000+0  00000+0 0  9999
2 38775  56.0613  81.1795 0011139 338.2741  21.6734  1.86230817 83401
BEIDOU-2 G6 (C02)       
1 38953U 12059A   24348.53997424 -.00000164  00000+0  00000+0 0  9999
2 38953   3.0184  79.0427 0007808 285.9412 356.1439  1.00269518 44381
BEIDOU-3S IGSO-1S (C31) 
1 40549U 15019A   24348.84215824 -.00000205  00000+0  00000+0 0  9999
2 40549  50.2394 302.0612 0034849 198.4253 341.7425  1.00263846 35544
BEIDOU-3S M2S (C58)     
1 40748U 15037A   24345.72127660 -.00000070  00000+0  00000+0 0  9994
2 40748  55.3458 321.0239 0012794 263.0625  96.7890  1.86228926 63813
BEIDOU-3S M1S (C57)     
1 40749U 15037B   24346.53162550 -.00000077  00000+0  00000+0 0  9999
2 40749  55.3478 320.9830 0004469 325.3245  34.6403  1.86227392 63830
BEIDOU-3S IGSO-2S (C56) 
1 40938U 15053A   24347.74632705 -.00000155  00000+0  00000+0 0  9992
2 40938  50.0798 265.3160 0051854 188.5052 352.8456  1.00264629 33829
BEIDOU-2 IGSO-6 (C13)   
1 41434U 16021A   24348.61428545 -.00000181  00000+0  00000+0 0  9991
2 41434  59.4427  43.5447 0055147 226.4834 130.7723  1.00279456 31952
BEIDOU-2 G7 (C03)       
1 41586U 16037A   24348.75963663 -.00000342  00000+0  00000+0 0  9995
2 41586   1.8102  67.4468 0007279 339.2201  60.2635  1.00267822 31260
BEIDOU-3 M1 (C19)       
1 43001U 17069A   24348.75472717 -.00000060  00000+0  00000+0 0  9997
2 43001  56.2115  81.2889 0009040 297.1809  62.7224  1.86230990 48356
BEIDOU-3 M2 (C20)       
1 43002U 17069B   24347.61843246 -.00000057  00000+0  00000+0 0  9997
2 43002  56.2099  81.3630 0006306 323.5862  36.3647  1.86230786 48324
BEIDOU-3 M7 (C27)       
1 43107U 18003A   24347.36589356 -.00000084  00000+0  00000+0 0  9993
2 43107  54.8030 321.4803 0002626  56.2233 303.7930  1.86232249 47075
BEIDOU-3 M8 (C28)       
1 43108U 18003B   24346.23390311 -.00000076  00000+0  00000+0 0  9991
2 43108  54.7968 321.5042 0005079 270.2759  89.6616  1.86230728 47067
BEIDOU-3 M4 (C22)       
1 43207U 18018A   24347.74894798 -.00000057  00000+0  00000+0 0  9991
2 43207  56.1696  81.4054 0003850   2.5900 357.4057  1.86230884 46477
BEIDOU-3 M3 (C21)       
1 43208U 18018B   24348.35249725 -.00000060  00000+0  00000+0 0  9998
2 43208  56.1695  81.3894 0006473 309.2982  50.6386  1.86231057 46480
BEIDOU-3 M9 (C29)       
1 43245U 18029A   24346.96127638 -.00000081  00000+0  00000+0 0  9997
2 43245  54.6811 319.1849 0002189 276.2174  83.7487  1.86232293 45618
BEIDOU-3 M10 (C30)      
1 43246U 18029B   24348.50154220 -.00000089  00000+0  00000+0 0  9995
2 43246  54.6772 319.1590 0004156 348.8598  11.1165  1.86232643 45639
BEIDOU-2 IGSO-7 (C16)   
1 43539U 18057A   24348.95107115 -.00000040  00000+0  00000+0 0  9998
2 43539  55.1545 167.8195 0078599 232.0174 137.3544  1.00256590 23612
BEIDOU-3 M5 (C23)       
1 43581U 18062A   24348.19051444  .00000108  00000+0  00000+0 0  9994
2 43581  54.1131 201.0412 0001940 345.5259  14.5593  1.86228549 43374
BEIDOU-3 M6 (C24)       
1 43582U 18062B   24345.90758055  .00000106  00000+0  00000+0 0  9991
2 43582  54.1128 201.1084 0007303  41.1977 318.9444  1.86229524 43338
BEIDOU-3 M12 (C26)      
1 43602U 18067A   24346.37856402  .00000111  00000+0  00000+0 0  9992
2 43602  54.2047 199.7900 0008651  35.2713 324.8735  1.86227675 42827
BEIDOU-3 M11 (C25)      
1 43603U 18067B   24347.04905111  .00000113  00000+0  00000+0 0  9992
2 43603  54.2019 199.7319 0005239  31.4365 328.6837  1.86227169 42868
BEIDOU-3 M13 (C32)      
1 43622U 18072A   24348.62050028 -.00000061  00000+0  00000+0 0  9995
2 43622  56.1421  80.9025 0005842 290.5155  69.4174  1.86230923 42403
BEIDOU-3 M14 (C33)      
1 43623U 18072B   24348.48597062 -.00000061  00000+0  00000+0 0  9994
2 43623  56.1438  80.9004 0003133 321.8807  38.0925  1.86230876 42393
BEIDOU-3 M16 (C35)      
1 43647U 18078A   24347.57358444 -.00000085  00000+0  00000+0 0  9990
2 43647  54.5770 319.2475 0007095   8.5358 351.4648  1.86232048 41881
BEIDOU-3 M15 (C34)      
1 43648U 18078B   24347.70272931 -.00000085  00000+0  00000+0 0  9992
2 43648  54.5727 319.2452 0003859   5.7107 354.2819  1.86231984 41906
BEIDOU-3 G1 (C59)       
1 43683U 18085A   24348.76554451 -.00000266  00000+0  00000+0 0  9997
2 43683   2.6376 103.3074 0001580  69.7743 325.4832  1.00273952 22536
BEIDOU-3 M17 (C36)      
1 43706U 18093A   24346.24485936  .00000109  00000+0  00000+0 0  9999
2 43706  54.1964 201.0591 0006432 299.6938  60.3302  1.86228139 41223
BEIDOU-3 M18 (C37)      
1 43707U 18093B   24348.25656536  .00000108  00000+0  00000+0 0  9998
2 43707  54.1972 200.9824 0006240 341.9402  18.1284  1.86229735 41272
BEIDOU-3 IGSO-1 (C38)   
1 44204U 19023A   24343.73514140 -.00000223  00000+0  00000+0 0  9996
2 44204  57.8983  43.4038 0025030 212.8920 201.6175  1.00248996  1644
BEIDOU-2 G8 (C01)       
1 44231U 19027A   24348.98077775 -.00000236  00000+0  00000+0 0  9994
2 44231   1.9251  74.7881 0005047 200.8285 305.1920  1.00271315 20552
BEIDOU-3 IGSO-2 (C39)   
1 44337U 19035A   24348.40570459 -.00000045  00000+0  00000+0 0  9992
2 44337  55.1921 163.6964 0035421 196.5699 346.0184  1.00283563 20142
BEIDOU-3 M24 (C46)      
1 44542U 19061A   24347.78971004  .00000110  00000+0  00000+0 0  9992
2 44542  54.4240 201.3282 0009111  17.0266 343.0952  1.86229257 35525
BEIDOU-3 M23 (C45)      
1 44543U 19061B   24346.84388243  .00000111  00000+0  00000+0 0  9997
2 44543  54.4223 201.3289 0005707  15.1025 343.5000  1.86229300 35509
BEIDOU-3 IGSO-3 (C40)   
1 44709U 19073A   24348.24559876 -.00000224  00000+0  00000+0 0  9998
2 44709  55.7478 286.8265 0041581 184.9987 174.9197  1.00302429 18912
BEIDOU-3 M22 (C44)      
1 44793U 19078A   24347.63379336 -.00000085  00000+0  00000+0 0  9994
2 44793  54.4243 319.1557 0005839  12.1941 347.8084  1.86231848 34388
BEIDOU-3 M21 (C43)      
1 44794U 19078B   24348.30005826 -.00000088  00000+0  00000+0 0  9993
2 44794  54.3973 319.1045 0004021 357.9468   2.0377  1.86232394 34399
BEIDOU-3 M19 (C41)      
1 44864U 19090A   24348.54777128 -.00000061  00000+0  00000+0 0  9993
2 44864  56.0763  81.0660 0017500 279.4430  78.5849  1.86231250 33979
BEIDOU-3 M20 (C42)      
1 44865U 19090B   24348.42268549 -.00000060  00000+0  00000+0 0  9992
2 44865  56.0778  81.1039 0014830 292.1647  71.6921  1.86231221 33964
BEIDOU-3 G2 (C60)       
1 45344U 20017A   24348.53919231 -.00000131  00000+0  00000+0 0  9998
2 45344   2.5664  35.7739 0004678 225.5846  95.4991  1.00270844 17737
BEIDOU-3 G3 (C61)       
1 45807U 20040A   24349.47432640 -.00000344  00000+0  00000+0 0  9992
2 45807   1.1369  57.5536 0003214 299.2006   8.1067  1.00276596 16572
BEIDOU-3 G4 (C62)       
1 56564U 23066A   24349.12671733 -.00000098  00000+0  00000+0 0  9991
2 56564   1.6762 289.1915 0004000 266.8658  92.8666  1.00270148  5892
BEIDOU-3 M28 (C50)      
1 58654U 23207A   24348.38312592 -.00000061  00000+0  00000+0 0  9992
2 58654  55.2618  80.9630 0002480 253.5792 106.3880  1.86231881  6583
BEIDOU-3 M26 (C48)      
1 58655U 23207B   24345.49775165 -.00000037  00000+0  00000+0 0  9994
2 58655  55.2614  81.0470 0003763 240.8124 119.1485  1.86231319  6519
